#cP2023  5  1  0  0  0.00000000      96 ORBIT IGS20 HLM  IGS
## 2260  86400.00000000   900.00000000 60065 0.0000000000000
+   32   G01G02G03G04G05G06G07G08G09G10G11G12G13G14G15G16G17
+        G18G19G20G21G22G23G24G25G26G27G28G29G30G31G32  0  0
+          0  0  0  0  0  0  0  0  0  0  0  0  0  0  0  0  0
+          0  0  0  0  0  0  0  0  0  0  0  0  0  0  0  0  0
+          0  0  0  0  0  0  0  0  0  0  0  0  0  0  0  0  0
++         2  2  2  2  2  2  2  2  2  1  2  2  2  2  2  2  2
++         2  2  2  2  3  2  2  2  2  2  2  2  2  2  2  0  0
++         0  0  0  0  0  0  0  0  0  0  0  0  0  0  0  0  0
++         0  0  0  0  0  0  0  0  0  0  0  0  0  0  0  0  0
++         0  0  0  0  0  0  0  0  0  0  0  0  0  0  0  0  0
%c G  cc GPS ccc cccc cccc cccc cccc ccccc ccccc ccccc ccccc
%c cc cc ccc ccc cccc cccc cccc cccc ccccc ccccc ccccc ccccc
%f  1.2500000  1.025000000  0.00000000000  0.000000000000000
%f  0.0000000  0.000000000  0.00000000000  0.000000000000000
%i    0    0    0    0      0      0      0      0         0
%i    0    0    0    0      0      0      0      0         0
/* RAPID ORBIT COMBINATION FROM WEIGHTED AVERAGE OF:        
/* cod emr esa gfz grg jpl ngs sio usn whu                  
/* REFERENCED TO IGS TIME (IGST) AND TO WEIGHTED MEAN POLE: 
/* PCV:IGS20_2233 OL/AL:FES2014b NONE     Y  ORB:CMB CLK:CMB
*  2023  5  1 12 45  0.00000000
PG01   8975.750869 -19000.600294 -16351.149663    188.727152  6  4  6  97       
PG02  17221.181277   3963.865122  20380.037433   -600.618712  7  6  4  97       
PG03  -1735.402678 -16388.345264 -20984.779813   -315.446247  5  5  3  74       
PG04    480.040101 -26356.731367  -2690.634904     30.392716  3  7  2  81       
PG05 -15334.121273   8508.743041  19810.729488   -125.515954  7  4  4  94       
PG06 -21069.420612   1645.945368 -16088.284699    588.003806  9  6  5  82       
PG07  -6487.152420 -14414.971310  21759.084499    188.715998  5  5  4 106       
PG08   7498.194751 -21022.303527  14019.549328   -120.374310  7  6  3 103       
PG09  -7800.019657 -24297.113883   7214.983635   -168.373480  7  6  3  85       
PG10  24202.063222  11348.519168    180.888950    -35.117905     2  5  85       
PG11 -23434.077158  12023.126453  -3271.493302   -181.290105  8  7  5  93       
PG12  -2236.852359  15785.287597 -21535.824403   -370.658250  7  6  5  99       
PG13 -12945.367378  14574.159660  17769.836148    513.710118  7  3  4  89       
PG14 -22772.784194 -13580.588662   2594.144036     42.396790  7  5  5  90       
PG15  -4764.364660  22264.836682  12999.247055     35.578434  4  5  5  83       
PG16  18666.652667  -3892.061950  18370.118663   -504.648372  9  6  6  69       
PG17 -12791.792053 -13739.937009 -18320.810301    713.057543  7  5  5  69       
PG18   9198.189656  11790.042907  21953.845593   -247.868506  5  5  8 101       
PG19 -14805.151241  -4325.943417 -21879.054924    311.021324  8  4  3  83       
PG20 -22260.883824   4125.644825  13766.309808    435.978554  9  5  6  83       
PG21  15347.689799 -19575.699638  -7413.840538    154.022066  6  3  4  92       
PG22  14973.651929    212.731904 -21487.382060    473.831852  9  8  2  89       
PG23  17921.364659  16115.619127  11332.601979     20.788065  8  5  2 103       
PG24 -11099.129863  20895.766541 -11989.320761   -172.555152  6  5  5 105       
PG25  10254.274378  17962.242244 -17125.978635    439.668259  6  6  2 108       
PG26  25150.658660   3050.180630   8413.089145    241.286077  8  5  4  62       
PG27  13004.595698 -10654.036605  20206.146641     46.870663  6  5  5  97       
PG28  20249.476162   -239.620218 -17207.923248     72.855459  7  5  6  88       
PG29   3213.231681  25953.928237   4320.581990   -597.743745  6  3  5  91       
PG30 -16875.078689  -6081.211861  19773.953808   -519.580058  4  4  8 105       
PG31  23792.875069  -7331.604886 -10045.731007   -215.184244  6  6  5  88       
PG32  14662.226772  10542.020279 -19363.684155   -465.655738  7     6  82       
*  2023  5  1 13  0  0.00000000
PG01  10435.771426 -19889.064208 -14217.055668    188.724383  6  4  7  90       
PG02  15572.935000   5528.950858  21364.715489   -600.615300  6  6  4  97       
PG03    498.030968 -15483.643877 -21718.583090   -315.437106  5  5  3  86       
PG04    774.978577 -25908.553833  -5504.675292     30.401226  3  7  3  89       
PG05 -17372.847844   7627.219642  18462.922306   -125.517496  8  4  4 108       
PG06 -19563.786231    403.994988 -17945.264811    588.004204  9  7  5  95       
PG07  -4544.421161 -15782.908033  21242.967985    188.708167  5  4  4  91       
PG08   7964.344366 -19323.611873  16082.059334   -120.375521  8  6  4  98       
PG09  -7634.185459 -25005.989866   4473.106461   -168.366119  7  6  3  92       
PG10  23981.340097  11451.024162   3045.220466    -35.119390        5  88       
PG11 -23123.439049  11525.340318  -6072.091850   -181.302140  8  7  6  57       
PG12  -4410.577045  14706.604657 -21957.699112   -370.662517  8  6  5  90       
PG13 -13042.237957  12414.942677  19278.626949    513.715064  7  3  4  87       
PG14 -22246.808114 -13636.682021   5369.550700     42.407852  6  5  5  90       
PG15  -5469.985300  20699.760685  15092.972042     35.581609  5  5  5  89       
PG16  20410.174020  -2815.197398  16703.053495   -504.645791  8  6  6  78       
PG17 -12767.780281 -15820.890649 -16609.532291    713.059032  7  5  5  81       
PG18   7160.762208  13245.761204  21869.575368   -247.883027  4  5  7  98       
PG19 -14805.905155  -6739.474655 -21278.999127    311.025788  8  4  4  93       
PG20 -23610.808025   3546.891161  11464.311287    435.976876  9  5  6  87       
PG21  16132.233855 -19854.309584  -4621.206282    154.021897  7  3  4  94       
PG22  15053.562338   2754.110034 -21273.894376    473.837843  9  7  3 103       
PG23  16533.532759  15753.914450  13691.808599     20.790628  7  5  1  99       
PG24 -12199.895596  21471.544218  -9548.727283   -172.567922  6  5  5  87       
PG25   8364.138317  17329.838624 -18734.614599    439.670758  6  7  1  86       
PG26  25831.645708   3593.117961   5788.993072    241.285736  8  5  4  65       
PG27  13394.564322  -8263.112249  21078.691671     46.863376  6  4  5  91       
PG28  18737.792544   1161.498486 -18810.940838     72.859792  6  5  6  90       
PG29   3012.966117  26299.861838   1453.767192   -597.745022  6  3  5  93       
PG30 -15082.025677  -7518.166712  20688.281904   -519.578278  5  3  7 104       
PG31  22891.929631  -6441.723367 -12458.101640   -215.185069  6  6  6  96       
PG32  14815.644678  12701.844221 -17927.628501   -465.664361  7  1  6  82       
*  2023  5  1 13 15  0.00000000
PG01  11649.787039 -20696.979624 -11838.925324    188.721598  6  3  7 104       
PG02  13951.989877   7242.128260  21999.794898   -600.611692  5  6  4  97       
PG03   2837.226717 -14682.835612 -22083.577123   -315.427957  5  5  3  96       
PG04   1138.097523 -25165.484079  -8223.308648     30.409798  3  7  4  84       
PG05 -19289.437367   6905.762943  16794.290226   -125.519143  8  4  4 101       
PG06 -17981.822030  -1046.103232 -19493.101578    588.004606  8  7  5  99       
PG07  -2728.717255 -17202.572273  20373.078480    188.699698  5  4  4  95       
PG08   8560.179101 -17437.718476  17861.864016   -120.376227  8  6  4  99       
PG09  -7442.473305 -25413.324313   1653.929127   -168.358765  7  6  2  89       
PG10  23466.376224  11457.956048   5858.251923    -35.120556     1  5  93       
PG11 -22591.815580  10822.731431  -8767.948113   -181.314158  9  7  6  81       
PG12  -6663.982376  13735.340442 -22011.502658   -370.666732  8  6  5  82       
PG13 -13259.194804  10111.460370  20448.849662    513.720023  7  2  5  76       
PG14 -21438.302351 -13606.262792   8053.366931     42.418953  5  5  5  79       
PG15  -6318.482617  18954.158187  16915.974760     35.584261  6  4  5  89       
PG16  22017.888120  -1921.958973  14747.327654   -504.643076  8  7  6  86       
PG17 -12830.186165 -17685.141933 -14602.272218    713.060467  7  5  5  97       
PG18   5227.906235  14790.994289  21408.658334   -247.897549  4  5  7  99       
PG19 -14932.797406  -9060.408720 -20321.908255    311.030375  8  3  4  85       
PG20 -24720.510025   3083.426625   8963.346147    435.974578  9  5  7  86       
PG21  16665.812702 -19940.104379  -1743.713221    154.021630  7  4  4  89       
PG22  15258.634929   5239.236767 -20679.368964    473.844142  8  7  4  94       
PG23  14886.402647  15390.038721  15817.149049     20.793210  7  6     96       
PG24 -13075.160206  21896.094381  -6942.283994   -172.580695  5  5  5  64       
PG25   6290.494643  16743.677417 -20031.386776    439.673262  6  7  2  97       
PG26  26249.938991   4018.424976   3066.962790    241.285386  8  5  4  80       
PG27  13922.279746  -5821.513078  21577.959982     46.856043  6  4  5  94       
PG28  17180.920246   2749.314606 -20090.852252     72.864033  6  4  6 102       
PG29   2798.199340  26330.514623  -1438.211204   -597.746260  5  3  5  86       
PG30 -13295.676690  -9094.958188  21251.508397   -519.576529  6  3  6 104       
PG31  21838.137661  -5343.596792 -14662.835254   -215.185823  5  7  6 100       
PG32  15047.138994  14670.696377 -16180.950032   -465.672995  8  2  6  98       
EOF
